CCSDS_OMM_VERS,COMMENT,CREATION_DATE,ORIGINATOR,OBJECT_NAME,OBJECT_ID,CENTER_NAME,REF_FRAME,TIME_SYSTEM,MEAN_ELEMENT_THEORY,EPOCH,MEAN_MOTION,ECCENTRICITY,INCLINATION,RA_OF_ASC_NODE,ARG_OF_PERICENTER,MEAN_ANOMALY,EPHEMERIS_TYPE,CLASSIFICATION_TYPE,NORAD_CAT_ID,ELEMENT_SET_NO,REV_AT_EPOCH,BSTAR,MEAN_MOTION_DOT,MEAN_MOTION_DDOT,SEMIMAJOR_AXIS,PERIOD,APOAPSIS,PERIAPSIS,OBJECT_TYPE,RCS_SIZE,COUNTRY_CODE,LAUNCH_DATE,SITE,DECAY_DATE,FILE,GP_ID,TLE_LINE0,TLE_LINE1,TLE_LINE2
2,GENERATED VIA SPACE-TRACK.ORG API,2020-01-25T18:15:22,18 SPCS,GALILEO-FM2,2011-060B,EARTH,TEME,UTC,SGP4,2020-01-25T04:05:34.056384,1.70475624,0.000607,56.5355,45.252,299.7658,64.2264,0,U,37847,999,5132,0.0,-6.3e-07,0,29600.132,844.695,23239.964,23204.029,PAYLOAD,LARGE,ESA,2011-10-21,FRGUI,,2689876,147330091,0 GALILEO-FM2,1 37847U 11060B   20025.17053306 -.00000063 +00000-0 +00000-0 0  9991,2 37847 056.5355 045.2520 0006070 299.7658 064.2264 01.70475624051328
2,GENERATED VIA SPACE-TRACK.ORG API,2020-01-27T17:45:22,18 SPCS,GALILEO-FM2,2011-060B,EARTH,TEME,UTC,SGP4,2020-01-27T05:05:36.990816,1.70475675,0.0006112,56.5371,45.1957,300.3467,236.6847,0,U,37847,999,5135,0.0,-6.1e-07,0,29600.126,844.695,23240.082,23203.899,PAYLOAD,LARGE,ESA,2011-10-21,FRGUI,,2690976,147428347,0 GALILEO-FM2,1 37847U 11060B   20027.21223369 -.00000061 +00000-0 +00000-0 0  9994,2 37847 056.5371 045.1957 0006112 300.3467 236.6847 01.70475675051354
2,GENERATED VIA SPACE-TRACK.ORG API,2020-01-27T14:50:16,18 SPCS,GALILEO-FM2,2011-060B,EARTH,TEME,UTC,SGP4,2020-01-27T05:05:36.990816,1.70475675,0.0006112,56.5371,45.1957,300.3467,236.6847,0,U,37847,999,5147,0.0,-6.1e-07,0,29600.126,844.695,23240.082,23203.899,PAYLOAD,LARGE,ESA,2011-10-21,FRGUI,,2690918,147412739,0 GALILEO-FM2,1 37847U 11060B   20027.21223369 -.00000061  00000-0  00000+0 0  9993,2 37847  56.5371  45.1957 0006112 300.3467 236.6847  1.70475675 51477
2,GENERATED VIA SPACE-TRACK.ORG API,2020-01-28T02:48:37,18 SPCS,GALILEO-FM2,2011-060B,EARTH,TEME,UTC,SGP4,2020-01-27T12:20:23.214048,1.70475681,0.0006116,56.5373,45.1874,300.3911,61.938,0,U,37847,999,5136,0.0,-6e-07,0,29600.125,844.695,23240.093,23203.887,PAYLOAD,LARGE,ESA,2011-10-21,FRGUI,,2691141,147451012,0 GALILEO-FM2,1 37847U 11060B   20027.51415757 -.00000060 +00000-0 +00000-0 0  9990,2 37847 056.5373 045.1874 0006116 300.3911 061.9380 01.70475681051361
2,GENERATED VIA SPACE-TRACK.ORG API,2020-01-28T18:30:32,18 SPCS,GALILEO-FM2,2011-060B,EARTH,TEME,UTC,SGP4,2020-01-28T04:45:12.417696,1.70475694,0.0006134,56.5371,45.1686,300.6601,121.3963,0,U,37847,999,5137,0.0,-5.9e-07,0,29600.123,844.695,23240.145,23203.832,PAYLOAD,LARGE,ESA,2011-10-21,FRGUI,,2691543,147498830,0 GALILEO-FM2,1 37847U 11060B   20028.19806039 -.00000059 +00000-0 +00000-0 0  9990,2 37847 056.5371 045.1686 0006134 300.6601 121.3963 01.70475694051372
2,GENERATED VIA SPACE-TRACK.ORG API,2020-01-30T02:14:18,18 SPCS,GALILEO-FM2,2011-060B,EARTH,TEME,UTC,SGP4,2020-01-29T20:35:08.096640,1.70475701,0.0006159,56.5383,45.1228,301.1039,59.5321,0,U,37847,999,5140,0.0,-5.3e-07,0,29600.123,844.695,23240.218,23203.757,PAYLOAD,LARGE,ESA,2011-10-21,FRGUI,,2692201,147649116,0 GALILEO-FM2,1 37847U 11060B   20029.85773260 -.00000053 +00000-0 +00000-0 0  9997,2 37847 056.5383 045.1228 0006159 301.1039 059.5321 01.70475701051408
2,GENERATED VIA SPACE-TRACK.ORG API,2020-01-30T07:50:14,18 SPCS,GALILEO-FM2,2011-060B,EARTH,TEME,UTC,SGP4,2020-01-29T20:35:08.096640,1.70475701,0.0006159,56.5383,45.1228,301.1039,59.5321,0,U,37847,999,5152,0.0,-5.3e-07,0,29600.123,844.695,23240.218,23203.757,PAYLOAD,LARGE,ESA,2011-10-21,FRGUI,,2692360,147658540,0 GALILEO-FM2,1 37847U 11060B   20029.85773260 -.00000053  00000-0  00000+0 0  9996,2 37847  56.5383  45.1228 0006159 301.1039  59.5321  1.70475701 51521
2,GENERATED VIA SPACE-TRACK.ORG API,2020-02-01T01:32:41,18 SPCS,GALILEO-FM2,2011-060B,EARTH,TEME,UTC,SGP4,2020-01-31T14:34:56.659008,1.70475685,0.0006194,56.5399,45.0744,301.5996,52.971,0,U,37847,999,5142,0.0,-4.6e-07,0,29600.125,844.695,23240.324,23203.655,PAYLOAD,LARGE,ESA,2011-10-21,FRGUI,,2693254,147810490,0 GALILEO-FM2,1 37847U 11060B   20031.60760022 -.00000046 +00000-0 +00000-0 0  9997,2 37847 056.5399 045.0744 0006194 301.5996 052.9710 01.70475685051424
2,GENERATED VIA SPACE-TRACK.ORG API,2020-02-01T16:41:43,18 SPCS,GALILEO-FM2,2011-060B,EARTH,TEME,UTC,SGP4,2020-02-01T04:49:51.297024,1.70475674,0.0006207,56.5404,45.058,301.7417,57.189,0,U,37847,999,5143,0.0,-4.3e-07,0,29600.126,844.695,23240.364,23203.618,PAYLOAD,LARGE,ESA,2011-10-21,FRGUI,,2693665,147839405,0 GALILEO-FM2,1 37847U 11060B   20032.20128816 -.00000043 +00000-0 +00000-0 0  9990,2 37847 056.5404 045.0580 0006207 301.7417 057.1890 01.70475674051439
2,GENERATED VIA SPACE-TRACK.ORG API,2020-02-01T15:50:16,18 SPCS,GALILEO-FM2,2011-060B,EARTH,TEME,UTC,SGP4,2020-02-01T04:49:51.297024,1.70475674,0.0006207,56.5404,45.058,301.7417,57.189,0,U,37847,999,5155,0.0,-4.3e-07,0,29600.126,844.695,23240.364,23203.618,PAYLOAD,LARGE,ESA,2011-10-21,FRGUI,,2693585,147823375,0 GALILEO-FM2,1 37847U 11060B   20032.20128816 -.00000043  00000-0  00000+0 0  9999,2 37847  56.5404  45.0580 0006207 301.7417  57.1890  1.70475674 51552
2,GENERATED VIA SPACE-TRACK.ORG API,2020-02-03T15:00:17,18 SPCS,GALILEO-FM2,2011-060B,EARTH,TEME,UTC,SGP4,2020-02-03T06:16:42.653856,1.70475616,0.0006253,56.5419,45.0012,302.2522,241.1427,0,U,37847,999,5159,0.0,-3.5e-07,0,29600.132,844.695,23240.506,23203.489,PAYLOAD,LARGE,ESA,2011-10-21,FRGUI,,2694483,147960779,0 GALILEO-FM2,1 37847U 11060B   20034.26160479 -.00000035  00000-0  00000+0 0  9999,2 37847  56.5419  45.0012 0006253 302.2522 241.1427  1.70475616 51593
2,GENERATED VIA SPACE-TRACK.ORG API,2020-02-04T18:31:20,18 SPCS,GALILEO-FM2,2011-060B,EARTH,TEME,UTC,SGP4,2020-02-04T05:41:35.653344,1.70475581,0.0006267,56.5426,44.9742,302.4625,119.6889,0,U,37847,999,5149,0.0,-3.1e-07,0,29600.137,844.695,23240.552,23203.451,PAYLOAD,LARGE,ESA,2011-10-21,FRGUI,,2695219,148067795,0 GALILEO-FM2,1 37847U 11060B   20035.23721821 -.00000031 +00000-0 +00000-0 0  9998,2 37847 056.5426 044.9742 0006267 302.4625 119.6889 01.70475581051491
2,GENERATED VIA SPACE-TRACK.ORG API,2020-02-06T16:46:50,18 SPCS,GALILEO-FM2,2011-060B,EARTH,TEME,UTC,SGP4,2020-02-06T04:25:13.490688,1.70475508,0.0006301,56.544,44.9205,302.9769,234.0724,0,U,37847,999,5152,0.0,-2.7e-07,0,29600.145,844.696,23240.661,23203.359,PAYLOAD,LARGE,ESA,2011-10-21,FRGUI,,2696031,148163693,0 GALILEO-FM2,1 37847U 11060B   20037.18418392 -.00000027 +00000-0 +00000-0 0  9995,2 37847 056.5440 044.9205 0006301 302.9769 234.0724 01.70475508051527
2,GENERATED VIA SPACE-TRACK.ORG API,2020-02-06T21:00:15,18 SPCS,GALILEO-FM2,2011-060B,EARTH,TEME,UTC,SGP4,2020-02-06T04:25:13.490688,1.70475508,0.0006301,56.544,44.9205,302.9769,234.0724,0,U,37847,999,5164,0.0,-2.7e-07,0,29600.145,844.696,23240.661,23203.359,PAYLOAD,LARGE,ESA,2011-10-21,FRGUI,,2696243,148174608,0 GALILEO-FM2,1 37847U 11060B   20037.18418392 -.00000027  00000-0  00000+0 0  9994,2 37847  56.5440  44.9205 0006301 302.9769 234.0724  1.70475508 51640
2,GENERATED VIA SPACE-TRACK.ORG API,2020-02-08T21:39:57,18 SPCS,GALILEO-FM2,2011-060B,EARTH,TEME,UTC,SGP4,2020-02-07T22:28:25.451616,1.7047545,0.000632,56.5452,44.872,303.388,229.0402,0,U,37847,999,5155,0.0,-2.8e-07,0,29600.152,844.696,23240.724,23203.309,PAYLOAD,LARGE,ESA,2011-10-21,FRGUI,,2697249,148309335,0 GALILEO-FM2,1 37847U 11060B   20038.93640569 -.00000028 +00000-0 +00000-0 0  9993,2 37847 056.5452 044.8720 0006320 303.3880 229.0402 01.70475450051557
2,GENERATED VIA SPACE-TRACK.ORG API,2020-02-08T22:50:16,18 SPCS,GALILEO-FM2,2011-060B,EARTH,TEME,UTC,SGP4,2020-02-08T12:48:52.233696,1.70475433,0.0006326,56.5456,44.8555,303.5272,235.6202,0,U,37847,999,5168,0.0,-2.9e-07,0,29600.154,844.696,23240.744,23203.294,PAYLOAD,LARGE,ESA,2011-10-21,FRGUI,,2697345,148336998,0 GALILEO-FM2,1 37847U 11060B   20039.53393789 -.00000029  00000-0  00000+0 0  9999,2 37847  56.5456  44.8555 0006326 303.5272 235.6202  1.70475433 51686
2,GENERATED VIA SPACE-TRACK.ORG API,2020-02-11T07:00:17,18 SPCS,GALILEO-FM2,2011-060B,EARTH,TEME,UTC,SGP4,2020-02-10T21:03:38.916000,1.70475389,0.000635,56.5474,44.7908,304.0713,233.3948,0,U,37847,999,5172,0.0,-3.9e-07,0,29600.159,844.696,23240.82,23203.228,PAYLOAD,LARGE,ESA,2011-10-21,FRGUI,,2698449,148537129,0 GALILEO-FM2,1 37847U 11060B   20041.87753375 -.00000039  00000-0  00000+0 0  9991,2 37847  56.5474  44.7908 0006350 304.0713 233.3948  1.70475389 51727
2,GENERATED VIA SPACE-TRACK.ORG API,2020-02-11T19:04:29,18 SPCS,GALILEO-FM2,2011-060B,EARTH,TEME,UTC,SGP4,2020-02-11T08:22:52.785120,1.70475385,0.0006352,56.5479,44.7778,304.2386,162.7134,0,U,37847,999,5161,0.0,-4.1e-07,0,29600.159,844.696,23240.826,23203.222,PAYLOAD,LARGE,ESA,2011-10-21,FRGUI,,2698722,148557362,0 GALILEO-FM2,1 37847U 11060B   20042.34922205 -.00000041 +00000-0 +00000-0 0  9998,2 37847 056.5479 044.7778 0006352 304.2386 162.7134 01.70475385051613
2,GENERATED VIA SPACE-TRACK.ORG API,2020-02-14T00:10:22,18 SPCS,GALILEO-FM2,2011-060B,EARTH,TEME,UTC,SGP4,2020-02-13T12:33:07.581888,1.70475389,0.000638,56.55,44.7178,304.7851,56.2671,0,U,37847,999,5177,0.0,-4.9e-07,0,29600.159,844.696,23240.909,23203.139,PAYLOAD,LARGE,ESA,2011-10-21,FRGUI,,2700536,148683036,0 GALILEO-FM2,1 37847U 11060B   20044.52300442 -.00000049  00000-0  00000+0 0  9990,2 37847  56.5500  44.7178 0006380 304.7851  56.2671  1.70475389 51779
2,GENERATED VIA SPACE-TRACK.ORG API,2020-02-15T20:04:18,18 SPCS,GALILEO-FM2,2011-060B,EARTH,TEME,UTC,SGP4,2020-02-15T00:11:52.952064,1.70475412,0.0006383,56.5505,44.6768,305.1317,247.4508,0,U,37847,999,5167,0.0,-5.2e-07,0,29600.156,844.696,23240.915,23203.127,PAYLOAD,LARGE,ESA,2011-10-21,FRGUI,,2702364,148815617,0 GALILEO-FM2,1 37847U 11060B   20046.00825176 -.00000052 +00000-0 +00000-0 0  9996,2 37847 056.5505 044.6768 0006383 305.1317 247.4508 01.70475412051672
